CCSDS_OMM_VERS = 2.0
CREATION_DATE  = 
ORIGINATOR     = 

OBJECT_NAME    = SL-3 R/B
OBJECT_ID      = 1982-079B
CENTER_NAME    = EARTH
REF_FRAME      = TEME
TIME_SYSTEM    = UTC
MEAN_ELEMENT_THEORY = SGP/SGP4

EPOCH          = 2026-03-28T05:40:44.448384
MEAN_MOTION    = 15.25044159
ECCENTRICITY   = .0025507
INCLINATION    = 81.1485
RA_OF_ASC_NODE = 171.1784
ARG_OF_PERICENTER = 103.7667
MEAN_ANOMALY   = 256.6408

EPHEMERIS_TYPE = 0
CLASSIFICATION_TYPE = U
NORAD_CAT_ID   = 13403
ELEMENT_SET_NO = 999
REV_AT_EPOCH   = 38052
BSTAR          = .26273E-3
MEAN_MOTION_DOT = .6651E-4
MEAN_MOTION_DDOT = 0

CCSDS_OMM_VERS = 2.0
CREATION_DATE  = 
ORIGINATOR     = 

OBJECT_NAME    = SL-14 R/B
OBJECT_ID      = 1982-092B
CENTER_NAME    = EARTH
REF_FRAME      = TEME
TIME_SYSTEM    = UTC
MEAN_ELEMENT_THEORY = SGP/SGP4

EPOCH          = 2026-03-28T03:38:51.905760
MEAN_MOTION    = 14.86682469
ECCENTRICITY   = .0019005
INCLINATION    = 82.5659
RA_OF_ASC_NODE = 124.1284
ARG_OF_PERICENTER = 237.5194
MEAN_ANOMALY   = 179.9998

EPHEMERIS_TYPE = 0
CLASSIFICATION_TYPE = U
NORAD_CAT_ID   = 13553
ELEMENT_SET_NO = 999
REV_AT_EPOCH   = 33167
BSTAR          = .4263E-4
MEAN_MOTION_DOT = .404E-5
MEAN_MOTION_DDOT = 0

CCSDS_OMM_VERS = 2.0
CREATION_DATE  = 
ORIGINATOR     = 

OBJECT_NAME    = SL-3 R/B
OBJECT_ID      = 1983-010B
CENTER_NAME    = EARTH
REF_FRAME      = TEME
TIME_SYSTEM    = UTC
MEAN_ELEMENT_THEORY = SGP/SGP4

EPOCH          = 2026-03-28T03:13:37.310304
MEAN_MOTION    = 15.46967163
ECCENTRICITY   = .0016058
INCLINATION    = 81.1057
RA_OF_ASC_NODE = 339.6254
ARG_OF_PERICENTER = 348.4178
MEAN_ANOMALY   = 11.6695

EPHEMERIS_TYPE = 0
CLASSIFICATION_TYPE = U
NORAD_CAT_ID   = 13819
ELEMENT_SET_NO = 999
REV_AT_EPOCH   = 36079
BSTAR          = .29837E-3
MEAN_MOTION_DOT = .15157E-3
MEAN_MOTION_DDOT = 0

CCSDS_OMM_VERS = 2.0
CREATION_DATE  = 
ORIGINATOR     = 

OBJECT_NAME    = SL-3 R/B
OBJECT_ID      = 1983-075B
CENTER_NAME    = EARTH
REF_FRAME      = TEME
TIME_SYSTEM    = UTC
MEAN_ELEMENT_THEORY = SGP/SGP4

EPOCH          = 2026-03-28T03:46:06.195360
MEAN_MOTION    = 15.38842463
ECCENTRICITY   = .0022179
INCLINATION    = 97.6141
RA_OF_ASC_NODE = 92.4397
ARG_OF_PERICENTER = 158.7580
MEAN_ANOMALY   = 201.4591

EPHEMERIS_TYPE = 0
CLASSIFICATION_TYPE = U
NORAD_CAT_ID   = 14208
ELEMENT_SET_NO = 999
REV_AT_EPOCH   = 33299
BSTAR          = .32339E-3
MEAN_MOTION_DOT = .12445E-3
MEAN_MOTION_DDOT = 0

CCSDS_OMM_VERS = 2.0
CREATION_DATE  = 
ORIGINATOR     = 

OBJECT_NAME    = COSMOS 1536
OBJECT_ID      = 1984-013A
CENTER_NAME    = EARTH
REF_FRAME      = TEME
TIME_SYSTEM    = UTC
MEAN_ELEMENT_THEORY = SGP/SGP4

EPOCH          = 2026-03-27T23:22:10.983936
MEAN_MOTION    = 15.24064370
ECCENTRICITY   = .0013225
INCLINATION    = 82.5415
RA_OF_ASC_NODE = 89.6669
ARG_OF_PERICENTER = 211.1812
MEAN_ANOMALY   = 148.8642

EPHEMERIS_TYPE = 0
CLASSIFICATION_TYPE = U
NORAD_CAT_ID   = 14699
ELEMENT_SET_NO = 999
REV_AT_EPOCH   = 27540
BSTAR          = .26005E-3
MEAN_MOTION_DOT = .6356E-4
MEAN_MOTION_DDOT = 0

CCSDS_OMM_VERS = 2.0
CREATION_DATE  = 
ORIGINATOR     = 

OBJECT_NAME    = SL-14 R/B
OBJECT_ID      = 1984-027B
CENTER_NAME    = EARTH
REF_FRAME      = TEME
TIME_SYSTEM    = UTC
MEAN_ELEMENT_THEORY = SGP/SGP4

EPOCH          = 2026-03-28T03:26:36.907008
MEAN_MOTION    = 14.85995490
ECCENTRICITY   = .001647
INCLINATION    = 82.5416
RA_OF_ASC_NODE = 227.7034
ARG_OF_PERICENTER = 272.5852
MEAN_ANOMALY   = 87.3479

EPHEMERIS_TYPE = 0
CLASSIFICATION_TYPE = U
NORAD_CAT_ID   = 14820
ELEMENT_SET_NO = 999
REV_AT_EPOCH   = 25037
BSTAR          = .64614E-4
MEAN_MOTION_DOT = .59E-5
MEAN_MOTION_DDOT = 0

CCSDS_OMM_VERS = 2.0
CREATION_DATE  = 
ORIGINATOR     = 

OBJECT_NAME    = SL-8 R/B
OBJECT_ID      = 1985-006B
CENTER_NAME    = EARTH
REF_FRAME      = TEME
TIME_SYSTEM    = UTC
MEAN_ELEMENT_THEORY = SGP/SGP4

EPOCH          = 2026-03-28T02:49:59.734272
MEAN_MOTION    = 14.37796154
ECCENTRICITY   = .00177
INCLINATION    = 74.0450
RA_OF_ASC_NODE = 227.2359
ARG_OF_PERICENTER = 139.7979
MEAN_ANOMALY   = 33.0153

EPHEMERIS_TYPE = 0
CLASSIFICATION_TYPE = U
NORAD_CAT_ID   = 15483
ELEMENT_SET_NO = 999
REV_AT_EPOCH   = 15667
BSTAR          = .10771E-3
MEAN_MOTION_DOT = .299E-5
MEAN_MOTION_DDOT = 0

CCSDS_OMM_VERS = 2.0
CREATION_DATE  = 
ORIGINATOR     = 

OBJECT_NAME    = SL-12 R/B(2)
OBJECT_ID      = 1985-042D
CENTER_NAME    = EARTH
REF_FRAME      = TEME
TIME_SYSTEM    = UTC
MEAN_ELEMENT_THEORY = SGP/SGP4

EPOCH          = 2026-03-28T04:50:20.861376
MEAN_MOTION    = 14.21987625
ECCENTRICITY   = .0032847
INCLINATION    = 71.1085
RA_OF_ASC_NODE = 48.6152
ARG_OF_PERICENTER = 97.4723
MEAN_ANOMALY   = 357.2075

EPHEMERIS_TYPE = 0
CLASSIFICATION_TYPE = U
NORAD_CAT_ID   = 15772
ELEMENT_SET_NO = 999
REV_AT_EPOCH   = 11702
BSTAR          = .47399E-4
MEAN_MOTION_DOT = .58E-6
MEAN_MOTION_DDOT = 0

CCSDS_OMM_VERS = 2.0
CREATION_DATE  = 
ORIGINATOR     = 

OBJECT_NAME    = SL-14 R/B
OBJECT_ID      = 1985-069B
CENTER_NAME    = EARTH
REF_FRAME      = TEME
TIME_SYSTEM    = UTC
MEAN_ELEMENT_THEORY = SGP/SGP4

EPOCH          = 2026-03-28T04:33:33.044256
MEAN_MOTION    = 14.86452951
ECCENTRICITY   = .0019992
INCLINATION    = 82.5305
RA_OF_ASC_NODE = 7.5416
ARG_OF_PERICENTER = 128.0967
MEAN_ANOMALY   = 232.2056

EPHEMERIS_TYPE = 0
CLASSIFICATION_TYPE = U
NORAD_CAT_ID   = 15945
ELEMENT_SET_NO = 999
REV_AT_EPOCH   = 17558
BSTAR          = .58444E-4
MEAN_MOTION_DOT = .543E-5
MEAN_MOTION_DDOT = 0

CCSDS_OMM_VERS = 2.0
CREATION_DATE  = 
ORIGINATOR     = 

OBJECT_NAME    = SL-16 R/B
OBJECT_ID      = 1985-097B
CENTER_NAME    = EARTH
REF_FRAME      = TEME
TIME_SYSTEM    = UTC
MEAN_ELEMENT_THEORY = SGP/SGP4

EPOCH          = 2026-03-28T04:57:57.024864
MEAN_MOTION    = 14.16603601
ECCENTRICITY   = .0009469
INCLINATION    = 71.0008
RA_OF_ASC_NODE = 101.5683
ARG_OF_PERICENTER = 238.1697
MEAN_ANOMALY   = 194.3708

EPHEMERIS_TYPE = 0
CLASSIFICATION_TYPE = U
NORAD_CAT_ID   = 16182
ELEMENT_SET_NO = 999
REV_AT_EPOCH   = 8985
BSTAR          = .23809E-5
MEAN_MOTION_DOT = -.43E-6
MEAN_MOTION_DDOT = 0

CCSDS_OMM_VERS = 2.0
CREATION_DATE  = 
ORIGINATOR     = 

OBJECT_NAME    = SL-14 R/B
OBJECT_ID      = 1986-006B
CENTER_NAME    = EARTH
REF_FRAME      = TEME
TIME_SYSTEM    = UTC
MEAN_ELEMENT_THEORY = SGP/SGP4

EPOCH          = 2026-03-28T03:53:40.925472
MEAN_MOTION    = 14.86843628
ECCENTRICITY   = .0075751
INCLINATION    = 82.5250
RA_OF_ASC_NODE = 242.3471
ARG_OF_PERICENTER = 210.5255
MEAN_ANOMALY   = 149.1544

EPHEMERIS_TYPE = 0
CLASSIFICATION_TYPE = U
NORAD_CAT_ID   = 16496
ELEMENT_SET_NO = 999
REV_AT_EPOCH   = 15195
BSTAR          = .1034E-3
MEAN_MOTION_DOT = .998E-5
MEAN_MOTION_DDOT = 0

CCSDS_OMM_VERS = 2.0
CREATION_DATE  = 
ORIGINATOR     = 

OBJECT_NAME    = COSMOS 1743
OBJECT_ID      = 1986-034A
CENTER_NAME    = EARTH
REF_FRAME      = TEME
TIME_SYSTEM    = UTC
MEAN_ELEMENT_THEORY = SGP/SGP4

EPOCH          = 2026-03-27T22:22:07.218336
MEAN_MOTION    = 15.60026052
ECCENTRICITY   = .0004094
INCLINATION    = 82.5299
RA_OF_ASC_NODE = 54.6624
ARG_OF_PERICENTER = 173.9679
MEAN_ANOMALY   = 186.1627

EPHEMERIS_TYPE = 0
CLASSIFICATION_TYPE = U
NORAD_CAT_ID   = 16719
ELEMENT_SET_NO = 999
REV_AT_EPOCH   = 18309
BSTAR          = .53018E-3
MEAN_MOTION_DOT = .43051E-3
MEAN_MOTION_DDOT = 0

